{
"type": "FeatureCollection",
"name": "calles-etapa-3",
"crs": { "type": "name", "properties": { "name": "urn:ogc:def:crs:OGC:1.3:CRS84" } },
"features": [
{ "type": "Feature", "properties": { "id": 1, "Calle": "Boulevard Loma Alta", "auxiliary_storage_labeling_positionx": null, "auxiliary_storage_labeling_positiony": null }, "geometry": { "type": "MultiLineString", "coordinates": [ [ [ -64.409363291655879, -33.108088593332361 ], [ -64.409257920514605, -33.10824874218936 ], [ -64.409415057036185, -33.108795745597085 ], [ -64.409408190684715, -33.10949220684811 ] ] ] } },
{ "type": "Feature", "properties": { "id": 2, "Calle": "Boulevard Loma Alta", "auxiliary_storage_labeling_positionx": null, "auxiliary_storage_labeling_positiony": null }, "geometry": { "type": "MultiLineString", "coordinates": [ [ [ -64.409515822367837, -33.110144163970546 ], [ -64.409513632988904, -33.111067780244795 ], [ -64.409513632988904, -33.111067780244795 ] ] ] } },
{ "type": "Feature", "properties": { "id": 3, "Calle": "Boulevard Loma Alta", "auxiliary_storage_labeling_positionx": null, "auxiliary_storage_labeling_positiony": null }, "geometry": { "type": "MultiLineString", "coordinates": [ [ [ -64.409508434222246, -33.11139517777989 ], [ -64.409496105761377, -33.112713869711037 ] ] ] } },
{ "type": "Feature", "properties": { "id": 4, "Calle": "Calle Río Las Tapias Este", "auxiliary_storage_labeling_positionx": null, "auxiliary_storage_labeling_positiony": null }, "geometry": { "type": "MultiLineString", "coordinates": [ [ [ -64.408851040304086, -33.110162768995785 ], [ -64.408844150959695, -33.112315269043599 ] ] ] } },
{ "type": "Feature", "properties": { "id": 5, "Calle": "Calle Pública", "auxiliary_storage_labeling_positionx": null, "auxiliary_storage_labeling_positiony": null }, "geometry": { "type": "MultiLineString", "coordinates": [ [ [ -64.408773524201251, -33.111131051996836 ], [ -64.408432036682171, -33.111131328902189 ] ] ] } },
{ "type": "Feature", "properties": { "id": 7, "Calle": "Calle Las Tapias Sur", "auxiliary_storage_labeling_positionx": null, "auxiliary_storage_labeling_positiony": null }, "geometry": { "type": "MultiLineString", "coordinates": [ [ [ -64.411720435498594, -33.112402147061992 ], [ -64.409646187616147, -33.112388266671935 ] ] ] } },
{ "type": "Feature", "properties": { "id": 8, "Calle": "Calle Río Las Cañitas", "auxiliary_storage_labeling_positionx": null, "auxiliary_storage_labeling_positiony": null }, "geometry": { "type": "MultiLineString", "coordinates": [ [ [ -64.411864945678815, -33.111920119174933 ], [ -64.411865240801049, -33.112731442067343 ] ] ] } },
{ "type": "Feature", "properties": { "id": 9, "Calle": "Calle Río Las Cañitas", "auxiliary_storage_labeling_positionx": null, "auxiliary_storage_labeling_positiony": null }, "geometry": { "type": "MultiLineString", "coordinates": [ [ [ -64.411887534511393, -33.109135359898403 ], [ -64.411860139964588, -33.111441035525246 ], [ -64.411860139964588, -33.111441035525246 ] ] ] } },
{ "type": "Feature", "properties": { "id": 10, "Calle": "Calle Río Zarzamora", "auxiliary_storage_labeling_positionx": null, "auxiliary_storage_labeling_positiony": null }, "geometry": { "type": "MultiLineString", "coordinates": [ [ [ -64.411746869221759, -33.110851413079047 ], [ -64.409625327506475, -33.110833818217472 ] ] ] } },
{ "type": "Feature", "properties": { "id": 11, "Calle": "Calle Río Tapias Norte", "auxiliary_storage_labeling_positionx": null, "auxiliary_storage_labeling_positiony": null }, "geometry": { "type": "MultiLineString", "coordinates": [ [ [ -64.41176736588551, -33.109968983332031 ], [ -64.409650922032071, -33.109959653442047 ] ] ] } },
{ "type": "Feature", "properties": { "id": 12, "Calle": "Calle Río Ahiras Este", "auxiliary_storage_labeling_positionx": null, "auxiliary_storage_labeling_positiony": null }, "geometry": { "type": "MultiLineString", "coordinates": [ [ [ -64.411000422305207, -33.109008084895464 ], [ -64.410994882004758, -33.109898668022424 ] ] ] } },
{ "type": "Feature", "properties": { "id": 13, "Calle": "Boulevard Río Santa Catalina", "auxiliary_storage_labeling_positionx": null, "auxiliary_storage_labeling_positiony": null }, "geometry": { "type": "MultiLineString", "coordinates": [ [ [ -64.411708627442522, -33.111621447223101 ], [ -64.409606992236363, -33.111102145757691 ] ] ] } },
{ "type": "Feature", "properties": { "id": 14, "Calle": "Boulevard Río Santa Catalina", "auxiliary_storage_labeling_positionx": null, "auxiliary_storage_labeling_positiony": null }, "geometry": { "type": "MultiLineString", "coordinates": [ [ [ -64.414229832079229, -33.112416394974659 ], [ -64.413397826392014, -33.112227642365596 ], [ -64.412714236251858, -33.111894502585777 ], [ -64.41202351552802, -33.111704138746838 ] ] ] } },
{ "type": "Feature", "properties": { "id": 15, "Calle": "Calle Río de Los Sauces Norte", "auxiliary_storage_labeling_positionx": null, "auxiliary_storage_labeling_positiony": null }, "geometry": { "type": "MultiLineString", "coordinates": [ [ [ -64.412789067509848, -33.111800415874427 ], [ -64.412791436968718, -33.110939578834163 ], [ -64.412002807576656, -33.110101299191513 ] ] ] } },
{ "type": "Feature", "properties": { "id": 16, "Calle": "Calle Río Barranquita Norte", "auxiliary_storage_labeling_positionx": null, "auxiliary_storage_labeling_positiony": null }, "geometry": { "type": "MultiLineString", "coordinates": [ [ [ -64.41356103575788, -33.112047035828255 ], [ -64.413567214505591, -33.110767214161463 ] ] ] } },
{ "type": "Feature", "properties": { "id": 17, "Calle": "Calle Río Barranquita Norte", "auxiliary_storage_labeling_positionx": null, "auxiliary_storage_labeling_positiony": null }, "geometry": { "type": "MultiLineString", "coordinates": [ [ [ -64.413466056507943, -33.11055881168879 ], [ -64.412651843286383, -33.109692425162677 ], [ -64.411984537362343, -33.109670052701169 ] ] ] } },
{ "type": "Feature", "properties": { "id": 18, "Calle": "Calle Río Talita", "auxiliary_storage_labeling_positionx": null, "auxiliary_storage_labeling_positiony": null }, "geometry": { "type": "MultiLineString", "coordinates": [ [ [ -64.414275492766507, -33.111020976742381 ], [ -64.413668291817515, -33.111024548451084 ] ] ] } },
{ "type": "Feature", "properties": { "id": 19, "Calle": "Calle Río Cipión", "auxiliary_storage_labeling_positionx": null, "auxiliary_storage_labeling_positiony": null }, "geometry": { "type": "MultiLineString", "coordinates": [ [ [ -64.414255207588283, -33.110311977833355 ], [ -64.413069964449605, -33.109033829343659 ], [ -64.413069964449605, -33.109033829343659 ] ] ] } },
{ "type": "Feature", "properties": { "id": 20, "Calle": "Río Achiras Oeste", "auxiliary_storage_labeling_positionx": null, "auxiliary_storage_labeling_positiony": null }, "geometry": { "type": "MultiLineString", "coordinates": [ [ [ -64.414352977275158, -33.109070363726389 ], [ -64.414363428954005, -33.112563542624621 ] ] ] } },
{ "type": "Feature", "properties": { "id": 21, "Calle": "Río Achiras Norte", "auxiliary_storage_labeling_positionx": null, "auxiliary_storage_labeling_positiony": null }, "geometry": { "type": "MultiLineString", "coordinates": [ [ [ -64.414336166238769, -33.108968373957346 ], [ -64.411035537535568, -33.108986633842456 ] ] ] } }
]
}
