{
"type": "FeatureCollection",
"name": "calles-etapa-2",
"crs": { "type": "name", "properties": { "name": "urn:ogc:def:crs:OGC:1.3:CRS84" } },
"features": [
{ "type": "Feature", "properties": { "id": 1, "Calle": "Calle Río Achiras", "auxiliary_storage_labeling_positionx": -64.413939662272441, "auxiliary_storage_labeling_positiony": -33.11552793533675, "auxiliary_storage_labeling_labelrotation": 50.483324515108549 }, "geometry": { "type": "MultiLineString", "coordinates": [ [ [ -64.414268880551489, -33.115140311798243 ], [ -64.413351213241327, -33.116127358547885 ], [ -64.413351213241327, -33.116127358547885 ] ] ] } },
{ "type": "Feature", "properties": { "id": 2, "Calle": "Calle Río Achiras", "auxiliary_storage_labeling_positionx": -64.414380481017076, "auxiliary_storage_labeling_positiony": -33.113920626150957, "auxiliary_storage_labeling_labelrotation": 90.814149773597137 }, "geometry": { "type": "MultiLineString", "coordinates": [ [ [ -64.414363144995576, -33.113512137226998 ], [ -64.414376178608137, -33.114847948677614 ] ] ] } },
{ "type": "Feature", "properties": { "id": 3, "Calle": "Calle Río Barranquita Sur", "auxiliary_storage_labeling_positionx": -64.413603463023321, "auxiliary_storage_labeling_positiony": -33.113995904210192, "auxiliary_storage_labeling_labelrotation": 90.347457567305028 }, "geometry": { "type": "MultiLineString", "coordinates": [ [ [ -64.413586286504696, -33.113651376515129 ], [ -64.413585004296607, -33.114617229921912 ] ] ] } },
{ "type": "Feature", "properties": { "id": 4, "Calle": "Calle Río Barranquita sur", "auxiliary_storage_labeling_positionx": -64.413284801653461, "auxiliary_storage_labeling_positiony": -33.1151584024703, "auxiliary_storage_labeling_labelrotation": 50.833496363666001 }, "geometry": { "type": "MultiLineString", "coordinates": [ [ [ -64.413348821165542, -33.115039379342868 ], [ -64.412623813915644, -33.115801942434871 ] ] ] } },
{ "type": "Feature", "properties": { "id": 5, "Calle": "Calle Río de Los Sauces Sur", "auxiliary_storage_labeling_positionx": null, "auxiliary_storage_labeling_positiony": null, "auxiliary_storage_labeling_labelrotation": null }, "geometry": { "type": "MultiLineString", "coordinates": [ [ [ -64.412779646213167, -33.1140235960317 ], [ -64.412783978633911, -33.114555815831551 ], [ -64.412314732563161, -33.11507225471113 ] ] ] } },
{ "type": "Feature", "properties": { "id": 6, "Calle": "Avenida Río Las Cañitas", "auxiliary_storage_labeling_positionx": -64.411642193109145, "auxiliary_storage_labeling_positiony": -33.116007396968378, "auxiliary_storage_labeling_labelrotation": 268.02988590822901 }, "geometry": { "type": "MultiLineString", "coordinates": [ [ [ -64.411820595121029, -33.114662038402606 ], [ -64.41173351612305, -33.115032633198425 ], [ -64.411676301768026, -33.115655092745598 ], [ -64.411711772717993, -33.116318447453104 ], [ -64.411786416257016, -33.116683423857502 ] ] ] } },
{ "type": "Feature", "properties": { "id": 7, "Calle": "Pasaje Río Santa Rosa", "auxiliary_storage_labeling_positionx": null, "auxiliary_storage_labeling_positiony": null, "auxiliary_storage_labeling_labelrotation": null }, "geometry": { "type": "MultiLineString", "coordinates": [ [ [ -64.410918759543321, -33.11425650926958 ], [ -64.410908652802419, -33.114799478750932 ] ] ] } },
{ "type": "Feature", "properties": { "id": 8, "Calle": "Boulevard Loma Alta", "auxiliary_storage_labeling_positionx": -64.409417928437094, "auxiliary_storage_labeling_positiony": -33.115017941618362, "auxiliary_storage_labeling_labelrotation": 89.954523435279057 }, "geometry": { "type": "MultiLineString", "coordinates": [ [ [ -64.409337054903332, -33.11475292812721 ], [ -64.409312626771012, -33.116747083387928 ] ] ] } },
{ "type": "Feature", "properties": { "id": 9, "Calle": "Calle Lito Ficco", "auxiliary_storage_labeling_positionx": -64.407369394479588, "auxiliary_storage_labeling_positiony": -33.115567688571311, "auxiliary_storage_labeling_labelrotation": 90.372280915289252 }, "geometry": { "type": "MultiLineString", "coordinates": [ [ [ -64.407360606016908, -33.115247155413812 ], [ -64.407355563087634, -33.11668202329512 ], [ -64.407355563087634, -33.11668202329512 ] ] ] } },
{ "type": "Feature", "properties": { "id": 10, "Calle": "Calle Pública", "auxiliary_storage_labeling_positionx": null, "auxiliary_storage_labeling_positiony": null, "auxiliary_storage_labeling_labelrotation": null }, "geometry": { "type": "MultiLineString", "coordinates": [ [ [ -64.412236595905796, -33.116942979652592 ], [ -64.408684962773492, -33.116945624289244 ] ] ] } },
{ "type": "Feature", "properties": { "id": 11, "Calle": "Calle Río Las Lajas", "auxiliary_storage_labeling_positionx": -64.413213098059643, "auxiliary_storage_labeling_positiony": -33.113595425723076, "auxiliary_storage_labeling_labelrotation": 14.446630744690026 }, "geometry": { "type": "MultiLineString", "coordinates": [ [ [ -64.414396579310406, -33.113241363356757 ], [ -64.411688881942595, -33.113911088618082 ] ] ] } },
{ "type": "Feature", "properties": { "id": 12, "Calle": "Calle Río Las Lajas", "auxiliary_storage_labeling_positionx": -64.410250400164202, "auxiliary_storage_labeling_positiony": -33.114339069227228, "auxiliary_storage_labeling_labelrotation": 15.693899136757651 }, "geometry": { "type": "MultiLineString", "coordinates": [ [ [ -64.41046326484539, -33.114193356371644 ], [ -64.407649929417062, -33.114908921733736 ] ] ] } }
]
}
